[
  {
    "OBJECT_NAME": "STARLINK-30844",
    "OBJECT_ID": "23180B",
    "EPOCH": "2025-11-11T02:48:27.127296",
    "MEAN_MOTION": 15.02540751,
    "ECCENTRICITY": 9.8e-05,
    "INCLINATION": 43.0049,
    "RA_OF_ASC_NODE": 340.7543,
    "ARG_OF_PERICENTER": 273.4237,
    "MEAN_ANOMALY": 86.6493,
    "EPHEMERIS_TYPE": 0,
    "CLASSIFICATION_TYPE": "U",
    "NORAD_CAT_ID": 58403,
    "ELEMENT_SET_NO": 999,
    "REV_AT_EPOCH": 10963,
    "BSTAR": 0.00016336,
    "MEAN_MOTION_DOT": 2.004e-05,
    "MEAN_MOTION_DDOT": 0.0,
    "TLE_LINE1": "1 58403U 23180B   25315.11698064  .00002004  00000+0  16336-3 0  9992",
    "TLE_LINE2": "2 58403  43.0049 340.7543 0000980 273.4237  86.6493 15.02540751109638",
    "COMMENT": "Grouped by shell and plane from TLE"
  },
  {
    "OBJECT_NAME": "STARLINK-30876",
    "OBJECT_ID": "23180C",
    "EPOCH": "2025-11-11T01:07:55.675488",
    "MEAN_MOTION": 15.02544154,
    "ECCENTRICITY": 0.0001136,
    "INCLINATION": 43.004,
    "RA_OF_ASC_NODE": 341.0875,
    "ARG_OF_PERICENTER": 272.9037,
    "MEAN_ANOMALY": 87.1676,
    "EPHEMERIS_TYPE": 0,
    "CLASSIFICATION_TYPE": "U",
    "NORAD_CAT_ID": 58404,
    "ELEMENT_SET_NO": 999,
    "REV_AT_EPOCH": 10973,
    "BSTAR": 0.00011046000000000001,
    "MEAN_MOTION_DOT": 1.289e-05,
    "MEAN_MOTION_DDOT": 0.0,
    "TLE_LINE1": "1 58404U 23180C   25315.04717217  .00001289  00000+0  11046-3 0  9994",
    "TLE_LINE2": "2 58404  43.0040 341.0875 0001136 272.9037  87.1676 15.02544154109739",
    "COMMENT": "Grouped by shell and plane from TLE"
  },
  {
    "OBJECT_NAME": "STARLINK-30952",
    "OBJECT_ID": "23180D",
    "EPOCH": "2025-11-11T02:38:51.815616",
    "MEAN_MOTION": 15.02533155,
    "ECCENTRICITY": 0.0001261,
    "INCLINATION": 43.0052,
    "RA_OF_ASC_NODE": 340.7014,
    "ARG_OF_PERICENTER": 273.6301,
    "MEAN_ANOMALY": 86.4397,
    "EPHEMERIS_TYPE": 0,
    "CLASSIFICATION_TYPE": "U",
    "NORAD_CAT_ID": 58405,
    "ELEMENT_SET_NO": 999,
    "REV_AT_EPOCH": 10963,
    "BSTAR": 0.00014000000000000001,
    "MEAN_MOTION_DOT": 1.688e-05,
    "MEAN_MOTION_DDOT": 0.0,
    "TLE_LINE1": "1 58405U 23180D   25315.11032194  .00001688  00000+0  14000-3 0  9993",
    "TLE_LINE2": "2 58405  43.0052 340.7014 0001261 273.6301  86.4397 15.02533155109635",
    "COMMENT": "Grouped by shell and plane from TLE"
  },
  {
    "OBJECT_NAME": "STARLINK-30925",
    "OBJECT_ID": "23180E",
    "EPOCH": "2025-11-11T02:34:03.251712",
    "MEAN_MOTION": 15.02527679,
    "ECCENTRICITY": 0.0001302,
    "INCLINATION": 43.003,
    "RA_OF_ASC_NODE": 340.6767,
    "ARG_OF_PERICENTER": 278.8589,
    "MEAN_ANOMALY": 81.2106,
    "EPHEMERIS_TYPE": 0,
    "CLASSIFICATION_TYPE": "U",
    "NORAD_CAT_ID": 58406,
    "ELEMENT_SET_NO": 999,
    "REV_AT_EPOCH": 10963,
    "BSTAR": 0.0,
    "MEAN_MOTION_DOT": -9.312e-05,
    "MEAN_MOTION_DDOT": 0.0,
    "TLE_LINE1": "1 58406U 23180E   25315.10698208 -.00009312  00000+0 -67536-3 0  9993",
    "TLE_LINE2": "2 58406  43.0030 340.6767 0001302 278.8589  81.2106 15.02527679109632",
    "COMMENT": "Grouped by shell and plane from TLE"
  },
  {
    "OBJECT_NAME": "STARLINK-30906",
    "OBJECT_ID": "23180G",
    "EPOCH": "2025-11-11T03:07:34.984128",
    "MEAN_MOTION": 15.02539306,
    "ECCENTRICITY": 0.0001119,
    "INCLINATION": 43.0041,
    "RA_OF_ASC_NODE": 340.684,
    "ARG_OF_PERICENTER": 255.9459,
    "MEAN_ANOMALY": 104.1259,
    "EPHEMERIS_TYPE": 0,
    "CLASSIFICATION_TYPE": "U",
    "NORAD_CAT_ID": 58408,
    "ELEMENT_SET_NO": 999,
    "REV_AT_EPOCH": 10963,
    "BSTAR": 0.00016599,
    "MEAN_MOTION_DOT": 2.04e-05,
    "MEAN_MOTION_DDOT": 0.0,
    "TLE_LINE1": "1 58408U 23180G   25315.13026602  .00002040  00000+0  16599-3 0  9993",
    "TLE_LINE2": "2 58408  43.0041 340.6840 0001119 255.9459 104.1259 15.02539306109630",
    "COMMENT": "Grouped by shell and plane from TLE"
  },
  {
    "OBJECT_NAME": "STARLINK-30922",
    "OBJECT_ID": "23180N",
    "EPOCH": "2025-11-11T02:05:17.795328",
    "MEAN_MOTION": 15.02533854,
    "ECCENTRICITY": 0.0001417,
    "INCLINATION": 43.0047,
    "RA_OF_ASC_NODE": 340.5118,
    "ARG_OF_PERICENTER": 278.2577,
    "MEAN_ANOMALY": 81.8104,
    "EPHEMERIS_TYPE": 0,
    "CLASSIFICATION_TYPE": "U",
    "NORAD_CAT_ID": 58414,
    "ELEMENT_SET_NO": 999,
    "REV_AT_EPOCH": 10974,
    "BSTAR": 0.00012993,
    "MEAN_MOTION_DOT": 1.552e-05,
    "MEAN_MOTION_DDOT": 0.0,
    "TLE_LINE1": "1 58414U 23180N   25315.08701152  .00001552  00000+0  12993-3 0  9995",
    "TLE_LINE2": "2 58414  43.0047 340.5118 0001417 278.2577  81.8104 15.02533854109744",
    "COMMENT": "Grouped by shell and plane from TLE"
  },
  {
    "OBJECT_NAME": "STARLINK-30949",
    "OBJECT_ID": "23180P",
    "EPOCH": "2025-11-11T03:45:48.650112",
    "MEAN_MOTION": 15.02536808,
    "ECCENTRICITY": 0.0001198,
    "INCLINATION": 43.0018,
    "RA_OF_ASC_NODE": 340.1599,
    "ARG_OF_PERICENTER": 246.7669,
    "MEAN_ANOMALY": 113.3047,
    "EPHEMERIS_TYPE": 0,
    "CLASSIFICATION_TYPE": "U",
    "NORAD_CAT_ID": 58415,
    "ELEMENT_SET_NO": 999,
    "REV_AT_EPOCH": 10975,
    "BSTAR": 0.0,
    "MEAN_MOTION_DOT": -2.824e-05,
    "MEAN_MOTION_DDOT": 0.0,
    "TLE_LINE1": "1 58415U 23180P   25315.15681308 -.00002824  00000+0 -19407-3 0  9996",
    "TLE_LINE2": "2 58415  43.0018 340.1599 0001198 246.7669 113.3047 15.02536808109750",
    "COMMENT": "Grouped by shell and plane from TLE"
  },
  {
    "OBJECT_NAME": "STARLINK-30967",
    "OBJECT_ID": "23180Q",
    "EPOCH": "2025-11-10T10:17:36.670560",
    "MEAN_MOTION": 15.02545399,
    "ECCENTRICITY": 0.0001099,
    "INCLINATION": 43.0021,
    "RA_OF_ASC_NODE": 344.1749,
    "ARG_OF_PERICENTER": 256.5625,
    "MEAN_ANOMALY": 103.5095,
    "EPHEMERIS_TYPE": 0,
    "CLASSIFICATION_TYPE": "U",
    "NORAD_CAT_ID": 58416,
    "ELEMENT_SET_NO": 999,
    "REV_AT_EPOCH": 10964,
    "BSTAR": 0.0,
    "MEAN_MOTION_DOT": -6.96e-06,
    "MEAN_MOTION_DDOT": 0.0,
    "TLE_LINE1": "1 58416U 23180Q   25314.42889665 -.00000696  00000+0 -36458-4 0  9993",
    "TLE_LINE2": "2 58416  43.0021 344.1749 0001099 256.5625 103.5095 15.02545399109644",
    "COMMENT": "Grouped by shell and plane from TLE"
  },
  {
    "OBJECT_NAME": "STARLINK-30955",
    "OBJECT_ID": "23180R",
    "EPOCH": "2025-11-11T01:36:32.862528",
    "MEAN_MOTION": 15.023697,
    "ECCENTRICITY": 3.51e-05,
    "INCLINATION": 43.0044,
    "RA_OF_ASC_NODE": 340.3636,
    "ARG_OF_PERICENTER": 316.3191,
    "MEAN_ANOMALY": 43.7624,
    "EPHEMERIS_TYPE": 0,
    "CLASSIFICATION_TYPE": "U",
    "NORAD_CAT_ID": 58417,
    "ELEMENT_SET_NO": 999,
    "REV_AT_EPOCH": 10974,
    "BSTAR": 0.0025357,
    "MEAN_MOTION_DOT": 0.00034066,
    "MEAN_MOTION_DDOT": 0.0,
    "TLE_LINE1": "1 58417U 23180R   25315.06704702  .00034066  00000+0  25357-2 0  9993",
    "TLE_LINE2": "2 58417  43.0044 340.3636 0000351 316.3191  43.7624 15.02369700109740",
    "COMMENT": "Grouped by shell and plane from TLE"
  },
  {
    "OBJECT_NAME": "STARLINK-30895",
    "OBJECT_ID": "23180S",
    "EPOCH": "2025-11-11T03:31:26.109408",
    "MEAN_MOTION": 15.02543799,
    "ECCENTRICITY": 0.0001187,
    "INCLINATION": 43.0034,
    "RA_OF_ASC_NODE": 340.114,
    "ARG_OF_PERICENTER": 272.9658,
    "MEAN_ANOMALY": 87.1049,
    "EPHEMERIS_TYPE": 0,
    "CLASSIFICATION_TYPE": "U",
    "NORAD_CAT_ID": 58418,
    "ELEMENT_SET_NO": 999,
    "REV_AT_EPOCH": 10964,
    "BSTAR": 0.0,
    "MEAN_MOTION_DOT": -1.057e-05,
    "MEAN_MOTION_DDOT": 0.0,
    "TLE_LINE1": "1 58418U 23180S   25315.14682997 -.00001057  00000+0 -63183-4 0  9991",
    "TLE_LINE2": "2 58418  43.0034 340.1140 0001187 272.9658  87.1049 15.02543799109645",
    "COMMENT": "Grouped by shell and plane from TLE"
  },
  {
    "OBJECT_NAME": "STARLINK-30899",
    "OBJECT_ID": "23180U",
    "EPOCH": "2025-11-11T03:21:50.468544",
    "MEAN_MOTION": 15.02498216,
    "ECCENTRICITY": 0.0001213,
    "INCLINATION": 43.0051,
    "RA_OF_ASC_NODE": 340.0632,
    "ARG_OF_PERICENTER": 256.8974,
    "MEAN_ANOMALY": 103.1733,
    "EPHEMERIS_TYPE": 0,
    "CLASSIFICATION_TYPE": "U",
    "NORAD_CAT_ID": 58420,
    "ELEMENT_SET_NO": 999,
    "REV_AT_EPOCH": 10964,
    "BSTAR": 0.0009423200000000001,
    "MEAN_MOTION_DOT": 0.00012536,
    "MEAN_MOTION_DDOT": 0.0,
    "TLE_LINE1": "1 58420U 23180U   25315.14016746  .00012536  00000+0  94232-3 0  9997",
    "TLE_LINE2": "2 58420  43.0051 340.0632 0001213 256.8974 103.1733 15.02498216109646",
    "COMMENT": "Grouped by shell and plane from TLE"
  },
  {
    "OBJECT_NAME": "STARLINK-30900",
    "OBJECT_ID": "23180X",
    "EPOCH": "2025-11-11T02:00:29.762784",
    "MEAN_MOTION": 15.02538918,
    "ECCENTRICITY": 0.0001582,
    "INCLINATION": 43.0031,
    "RA_OF_ASC_NODE": 340.4492,
    "ARG_OF_PERICENTER": 271.8028,
    "MEAN_ANOMALY": 88.2633,
    "EPHEMERIS_TYPE": 0,
    "CLASSIFICATION_TYPE": "U",
    "NORAD_CAT_ID": 58423,
    "ELEMENT_SET_NO": 999,
    "REV_AT_EPOCH": 10963,
    "BSTAR": 5.669e-05,
    "MEAN_MOTION_DOT": 5.62e-06,
    "MEAN_MOTION_DDOT": 0.0,
    "TLE_LINE1": "1 58423U 23180X   25315.08367781  .00000562  00000+0  56690-4 0  9994",
    "TLE_LINE2": "2 58423  43.0031 340.4492 0001582 271.8028  88.2633 15.02538918109636",
    "COMMENT": "Grouped by shell and plane from TLE"
  }
]